{
  "type": "FeatureCollection",
  "features": [
    {
      "type": "Feature",
      "properties": {
        "norad_id": 44794,
        "name": "BEIDOU-3 M21 (C43)",
        "group": "beidou",
        "lat": -40.514107841363945,
        "lon": -92.229921659318,
        "alt_km": 21528.356864462017,
        "timestamp": "2025-12-21T22:41:41.725664+00:00",
        "meta_object_name": "BEIDOU-3 M21 (C43)",
        "meta_object_id": "2019-078B",
        "meta_epoch": "2025-12-16T15:43:55.727904",
        "meta_mean_motion": 1.86227668,
        "meta_eccentricity": 0.00041169,
        "meta_inclination": 54.078,
        "meta_ra_of_asc_node": 306.2132,
        "meta_arg_of_pericenter": 11.942,
        "meta_mean_anomaly": 348.0544,
        "meta_ephemeris_type": 0,
        "meta_classification_type": "U",
        "meta_norad_cat_id": 44794,
        "meta_element_set_no": 999,
        "meta_rev_at_epoch": 4125,
        "meta_bstar": 0,
        "meta_mean_motion_dot": -9.5e-07,
        "meta_mean_motion_ddot": 0,
        "tle_line1": "1 44794U 19078B   25350.65550611 -.00000095  00000+0  00000+0 0  9990",
        "tle_line2": "2 44794  54.0780 306.2132 0004116  11.9420 348.0544  1.86227668 41256"
      },
      "geometry": {
        "type": "Point",
        "coordinates": [
          -92.229921659318,
          -40.514107841363945
        ]
      }
    },
    {
      "type": "Feature",
      "properties": {
        "norad_id": 44864,
        "name": "BEIDOU-3 M19 (C41)",
        "group": "beidou",
        "lat": 30.540824139469134,
        "lon": -134.3832800923271,
        "alt_km": 21564.773664400178,
        "timestamp": "2025-12-21T22:41:41.725676+00:00",
        "meta_object_name": "BEIDOU-3 M19 (C41)",
        "meta_object_id": "2019-090A",
        "meta_epoch": "2025-12-21T08:18:55.694880",
        "meta_mean_motion": 1.86231675,
        "meta_eccentricity": 0.00183109,
        "meta_inclination": 56.3999,
        "meta_ra_of_asc_node": 68.6763,
        "meta_arg_of_pericenter": 285.0239,
        "meta_mean_anomaly": 175.8266,
        "meta_ephemeris_type": 0,
        "meta_classification_type": "U",
        "meta_norad_cat_id": 44864,
        "meta_element_set_no": 999,
        "meta_rev_at_epoch": 4092,
        "meta_bstar": 0,
        "meta_mean_motion_dot": -3.6e-07,
        "meta_mean_motion_ddot": 0,
        "tle_line1": "1 44864U 19090A   25355.34647795 -.00000036  00000+0  00000+0 0  9998",
        "tle_line2": "2 44864  56.3999  68.6763 0018310 285.0239 175.8266  1.86231675 40926"
      },
      "geometry": {
        "type": "Point",
        "coordinates": [
          -134.3832800923271,
          30.540824139469134
        ]
      }
    },
    {
      "type": "Feature",
      "properties": {
        "norad_id": 44865,
        "name": "BEIDOU-3 M20 (C42)",
        "group": "beidou",
        "lat": -41.02945643787161,
        "lon": -76.00565947031596,
        "alt_km": 21514.751059099297,
        "timestamp": "2025-12-21T22:41:41.725688+00:00",
        "meta_object_name": "BEIDOU-3 M20 (C42)",
        "meta_object_id": "2019-090B",
        "meta_epoch": "2025-12-21T01:49:05.066976",
        "meta_mean_motion": 1.86231552,
        "meta_eccentricity": 0.00154797,
        "meta_inclination": 56.4014,
        "meta_ra_of_asc_node": 68.7196,
        "meta_arg_of_pericenter": 297.2086,
        "meta_mean_anomaly": 71.7471,
        "meta_ephemeris_type": 0,
        "meta_classification_type": "U",
        "meta_norad_cat_id": 44865,
        "meta_element_set_no": 999,
        "meta_rev_at_epoch": 4090,
        "meta_bstar": 0,
        "meta_mean_motion_dot": -3.8e-07,
        "meta_mean_motion_ddot": 0,
        "tle_line1": "1 44865U 19090B   25355.07575309 -.00000038  00000+0  00000+0 0  9992",
        "tle_line2": "2 44865  56.4014  68.7196 0015479 297.2086  71.7471  1.86231552 40909"
      },
      "geometry": {
        "type": "Point",
        "coordinates": [
          -76.00565947031596,
          -41.02945643787161
        ]
      }
    },
    {
      "type": "Feature",
      "properties": {
        "norad_id": 45344,
        "name": "BEIDOU-3 G2 (C60)",
        "group": "beidou",
        "lat": 2.4157202640734368,
        "lon": 151.20946219316954,
        "alt_km": 35790.6085702257,
        "timestamp": "2025-12-21T22:41:41.725699+00:00",
        "meta_object_name": "BEIDOU-3 G2 (C60)",
        "meta_object_id": "2020-017A",
        "meta_epoch": "2025-12-19T13:38:45.370752",
        "meta_mean_motion": 1.00273166,
        "meta_eccentricity": 0.0002079,
        "meta_inclination": 2.5096,
        "meta_ra_of_asc_node": 44.0024,
        "meta_arg_of_pericenter": 233.0917,
        "meta_mean_anomaly": 96.0359,
        "meta_ephemeris_type": 0,
        "meta_classification_type": "U",
        "meta_norad_cat_id": 45344,
        "meta_element_set_no": 999,
        "meta_rev_at_epoch": 2145,
        "meta_bstar": 0,
        "meta_mean_motion_dot": -1.18e-06,
        "meta_mean_motion_ddot": 0,
        "tle_line1": "1 45344U 20017A   25353.56858068 -.00000118  00000+0  00000+0 0  9993",
        "tle_line2": "2 45344   2.5096  44.0024 0002079 233.0917  96.0359  1.00273166 21451"
      },
      "geometry": {
        "type": "Point",
        "coordinates": [
          151.20946219316954,
          2.4157202640734368
        ]
      }
    },
    {
      "type": "Feature",
      "properties": {
        "norad_id": 45807,
        "name": "BEIDOU-3 G3 (C61)",
        "group": "beidou",
        "lat": 1.824493842800333,
        "lon": -178.22425172866951,
        "alt_km": 35812.88034787136,
        "timestamp": "2025-12-21T22:41:41.725711+00:00",
        "meta_object_name": "BEIDOU-3 G3 (C61)",
        "meta_object_id": "2020-040A",
        "meta_epoch": "2025-12-21T13:52:43.971744",
        "meta_mean_motion": 1.00269819,
        "meta_eccentricity": 0.0006499,
        "meta_inclination": 2.0115,
        "meta_ra_of_asc_node": 66.6552,
        "meta_arg_of_pericenter": 309.2812,
        "meta_mean_anomaly": 33.2123,
        "meta_ephemeris_type": 0,
        "meta_classification_type": "U",
        "meta_norad_cat_id": 45807,
        "meta_element_set_no": 999,
        "meta_rev_at_epoch": 2028,
        "meta_bstar": 0,
        "meta_mean_motion_dot": -3.32e-06,
        "meta_mean_motion_ddot": 0,
        "tle_line1": "1 45807U 20040A   25355.57828671 -.00000332  00000+0  00000+0 0  9991",
        "tle_line2": "2 45807   2.0115  66.6552 0006499 309.2812  33.2123  1.00269819 20280"
      },
      "geometry": {
        "type": "Point",
        "coordinates": [
          -178.22425172866951,
          1.824493842800333
        ]
      }
    },
    {
      "type": "Feature",
      "properties": {
        "norad_id": 56564,
        "name": "BEIDOU-3 G4 (C62)",
        "group": "beidou",
        "lat": -0.7742541640531844,
        "lon": -128.74018840983953,
        "alt_km": 35780.99879324329,
        "timestamp": "2025-12-21T22:41:41.725724+00:00",
        "meta_object_name": "BEIDOU-3 G4 (C62)",
        "meta_object_id": "2023-066A",
        "meta_epoch": "2025-12-21T15:17:44.488608",
        "meta_mean_motion": 1.0027139,
        "meta_eccentricity": 0.00026846,
        "meta_inclination": 0.7966,
        "meta_ra_of_asc_node": 302.7288,
        "meta_arg_of_pericenter": 226.7052,
        "meta_mean_anomaly": 310.5154,
        "meta_ephemeris_type": 0,
        "meta_classification_type": "U",
        "meta_norad_cat_id": 56564,
        "meta_element_set_no": 999,
        "meta_rev_at_epoch": 961,
        "meta_bstar": 0,
        "meta_mean_motion_dot": -8.8e-07,
        "meta_mean_motion_ddot": 0,
        "tle_line1": "1 56564U 23066A   25355.63732047 -.00000088  00000+0  00000+0 0  9990",
        "tle_line2": "2 56564   0.7966 302.7288 0002684 226.7052 310.5154  1.00271390  9618"
      },
      "geometry": {
        "type": "Point",
        "coordinates": [
          -128.74018840983953,
          -0.7742541640531844
        ]
      }
    },
    {
      "type": "Feature",
      "properties": {
        "norad_id": 58654,
        "name": "BEIDOU-3 M28 (C50)",
        "group": "beidou",
        "lat": -52.59440155588333,
        "lon": -48.191353442564846,
        "alt_km": 21526.882311365254,
        "timestamp": "2025-12-21T22:41:41.725735+00:00",
        "meta_object_name": "BEIDOU-3 M28 (C50)",
        "meta_object_id": "2023-207A",
        "meta_epoch": "2025-12-18T08:16:11.764704",
        "meta_mean_motion": 1.86229821,
        "meta_eccentricity": 0.00026501,
        "meta_inclination": 55.5892,
        "meta_ra_of_asc_node": 68.4116,
        "meta_arg_of_pericenter": 272.4264,
        "meta_mean_anomaly": 87.5728,
        "meta_ephemeris_type": 0,
        "meta_classification_type": "U",
        "meta_norad_cat_id": 58654,
        "meta_element_set_no": 999,
        "meta_rev_at_epoch": 1347,
        "meta_bstar": 0,
        "meta_mean_motion_dot": -6.6e-07,
        "meta_mean_motion_ddot": 0,
        "tle_line1": "1 58654U 23207A   25352.34458061 -.00000066  00000+0  00000+0 0  9991",
        "tle_line2": "2 58654  55.5892  68.4116 0002650 272.4264  87.5728  1.86229821 13471"
      },
      "geometry": {
        "type": "Point",
        "coordinates": [
          -48.191353442564846,
          -52.59440155588333
        ]
      }
    }
  ]
}